NORAD_CAT_ID,OBJECT_NAME,OBJECT_TYPE,EPOCH,MEAN_MOTION,ECCENTRICITY,INCLINATION,RA_OF_ASC_NODE,ARG_OF_PERICENTER,MEAN_ANOMALY,BSTAR,MEAN_MOTION_DOT,MEAN_MOTION_DDOT,TLE_LINE0,TLE_LINE1,TLE_LINE2,SEMIMAJOR_AXIS,PERIOD,APOGEE,PERIGEE,DECAYED
55288.0,STARLINK-5311,PAYLOAD,2023-12-31 22:25:16,14.98330712,0.0002145,69.999,238.3847,261.2079,98.8837,-2.4365e-05,-3.84e-06,0.0,0 STARLINK-5311,1 55288U 23010V   23365.93421446 -.00000384  00000-0 -24365-4 0  9997,2 55288  69.9990 238.3847 0002145 261.2079  98.8837 14.98330712 53623,6950.191,96.107,573.547,570.565,0.0
55288.0,STARLINK-5311,PAYLOAD,2024-01-01 01:37:32,14.98330627,0.0002157,69.999,238.0481,262.4186,97.6728,-2.4864e-05,-3.9e-06,0.0,0 STARLINK-5311,1 55288U 23010V   24001.06773452 -.00000390  00000-0 -24864-4 0  9997,2 55288  69.9990 238.0481 0002157 262.4186  97.6728 14.98330627 53642,6950.191,96.107,573.555,570.557,0.0
55288.0,STARLINK-5311,PAYLOAD,2024-01-01 19:15:00,14.98334057,0.0002287,69.9988,236.1961,265.7643,94.3254,5.7192e-05,5.9e-06,0.0,0 STARLINK-5311,1 55288U 23010V   24001.80208899  .00000590  00000-0  57192-4 0  9997,2 55288  69.9988 236.1961 0002287 265.7643  94.3254 14.98334057 53446,6950.18,96.107,573.635,570.456,0.0
55288.0,STARLINK-5311,PAYLOAD,2024-01-01 22:27:16,14.98333905,0.0002288,69.9988,235.8594,265.5696,94.5202,5.3591e-05,5.47e-06,0.0,0 STARLINK-5311,1 55288U 23010V   24001.93560885  .00000547  00000-0  53591-4 0  9998,2 55288  69.9988 235.8594 0002288 265.5696  94.5202 14.98333905 53773,6950.181,96.107,573.636,570.456,0.0
55288.0,STARLINK-5311,PAYLOAD,2024-01-02 14:28:37,14.98331265,0.0002252,69.999,234.1767,265.2805,94.8097,9.44e-06,2e-07,0.0,0 STARLINK-5311,1 55288U 23010V   24002.60321042  .00000020  00000-0  94400-5 0  9994,2 55288  69.9990 234.1767 0002252 265.2805  94.8097 14.98331265 53873,6950.189,96.107,573.619,570.489,0.0
55288.0,STARLINK-5311,PAYLOAD,2024-01-02 19:17:01,14.98331655,0.0002232,69.999,233.6716,266.1235,93.9669,1.3517e-05,6.8e-07,0.0,0 STARLINK-5311,1 55288U 23010V   24002.80348981  .00000068  00000-0  13517-4 0  9998,2 55288  69.9990 233.6716 0002232 266.1235  93.9669 14.98331655 53593,6950.188,96.107,573.604,570.501,0.0
55288.0,STARLINK-5311,PAYLOAD,2024-01-02 22:29:17,14.98331827,0.0002225,69.999,233.3349,265.576,94.5145,1.4321e-05,7.8e-07,0.0,0 STARLINK-5311,1 55288U 23010V   24002.93700943  .00000078  00000-0  14321-4 0  9997,2 55288  69.9990 233.3349 0002225 265.5760  94.5145 14.98331827 53924,6950.187,96.107,573.599,570.506,0.0
55288.0,STARLINK-5311,PAYLOAD,2024-01-03 01:41:33,14.9833205,0.000221,69.999,232.9984,265.7352,94.3554,1.7715e-05,1.18e-06,0.0,0 STARLINK-5311,1 55288U 23010V   24003.07052897  .00000118  00000-0  17715-4 0  9996,2 55288  69.9990 232.9984 0002210 265.7352  94.3554 14.98332050 53940,6950.187,96.107,573.588,570.516,0.0
55288.0,STARLINK-5311,PAYLOAD,2024-01-03 19:19:02,14.98331575,0.0002091,69.9994,231.147,260.3452,99.7471,-4.0494e-05,-5.76e-06,0.0,0 STARLINK-5311,1 55288U 23010V   24003.80488976 -.00000576  00000-0 -40494-4 0  9998,2 55288  69.9994 231.1470 0002091 260.3452  99.7471 14.98331575 53740,6950.188,96.107,573.506,570.6,0.0
55288.0,STARLINK-5311,PAYLOAD,2024-01-03 22:31:18,14.98329761,0.0002227,69.9993,230.8103,263.3507,96.7398,-5.8392e-05,-7.9e-06,0.0,0 STARLINK-5311,1 55288U 23010V   24003.93841125 -.00000790  00000-0 -58392-4 0  9995,2 55288  69.9993 230.8103 0002227 263.3507  96.7398 14.98329761 54079,6950.194,96.107,573.606,570.511,0.0
55288.0,STARLINK-5311,PAYLOAD,2024-01-04 14:32:39,14.98332227,0.0002322,69.9985,229.126,268.8391,91.2502,-2.9588e-05,-4.46e-06,0.0,0 STARLINK-5311,1 55288U 23010V   24004.60600864 -.00000446  00000-0 -29588-4 0  9996,2 55288  69.9985 229.1260 0002322 268.8391  91.2502 14.98332227 54171,6950.186,96.107,573.665,570.437,0.0
55288.0,STARLINK-5311,PAYLOAD,2024-01-04 20:57:11,14.98331336,0.0002254,69.9986,228.4527,264.2889,95.8013,-1.2033e-05,-2.36e-06,0.0,0 STARLINK-5311,1 55288U 23010V   24004.87304741 -.00000236  00000-0 -12033-4 0  9994,2 55288  69.9986 228.4527 0002254 264.2889  95.8013 14.98331336 53903,6950.189,96.107,573.62,570.487,0.0
55288.0,STARLINK-5311,PAYLOAD,2024-01-04 22:33:19,14.98332177,0.0002201,69.9988,228.2844,261.8864,98.2045,3.6342e-06,-5e-07,0.0,0 STARLINK-5311,1 55288U 23010V   24004.93980619 -.00000050  00000-0  36342-5 0  9998,2 55288  69.9988 228.2844 0002201 261.8864  98.2045 14.98332177 54225,6950.186,96.107,573.581,570.521,0.0
55288.0,STARLINK-5311,PAYLOAD,2024-01-05 14:34:40,14.98323146,0.0002456,69.9996,226.6025,271.1317,88.9561,-4.7364e-06,-1.49e-06,0.0,0 STARLINK-5311,1 55288U 23010V   24005.60741313 -.00000149  00000-0 -47364-5 0  9995,2 55288  69.9996 226.6025 0002456 271.1317  88.9561 14.98323146 54322,6950.214,96.107,573.786,570.372,0.0
55288.0,STARLINK-5311,PAYLOAD,2024-01-05 19:23:04,14.9832591,0.000239,69.9983,226.0956,267.6455,92.4431,-3.0309e-05,-4.54e-06,0.0,0 STARLINK-5311,1 55288U 23010V   24005.80769245 -.00000454  00000-0 -30309-4 0  9990,2 55288  69.9983 226.0956 0002390 267.6455  92.4431 14.98325910 54041,6950.206,96.107,573.732,570.409,0.0
55288.0,STARLINK-5311,PAYLOAD,2024-01-05 22:35:20,14.98326491,0.000234,69.9984,225.7591,266.9204,93.1687,-2.0571e-05,-3.38e-06,0.0,0 STARLINK-5311,1 55288U 23010V   24005.94121211 -.00000338  00000-0 -20571-4 0  9991,2 55288  69.9984 225.7591 0002340 266.9204  93.1687 14.98326491 54374,6950.204,96.107,573.695,570.442,0.0
55288.0,STARLINK-5311,PAYLOAD,2024-01-06 00:11:28,14.98327747,0.0002469,69.9983,225.5908,271.8138,88.2739,-8.0588e-06,-1.89e-06,0.0,0 STARLINK-5311,1 55288U 23010V   24006.00797115 -.00000189  00000-0 -80588-5 0  9990,2 55288  69.9983 225.5908 0002469 271.8138  88.2739 14.98327747 54385,6950.2,96.107,573.781,570.349,0.0
55288.0,STARLINK-5311,PAYLOAD,2024-01-06 19:25:05,14.98331348,0.0002352,69.9986,223.5712,269.1976,90.8913,2.4489e-06,-6.4e-07,0.0,0 STARLINK-5311,1 55288U 23010V   24006.80908902 -.00000064  00000-0  24489-5 0  9995,2 55288  69.9986 223.5712 0002352 269.1976  90.8913 14.98331348 54194,6950.189,96.107,573.688,570.419,0.0
55288.0,STARLINK-5311,PAYLOAD,2024-01-06 21:01:13,14.98331262,0.0002289,69.9985,223.4023,267.6681,92.4216,7.1242e-06,-8e-08,0.0,0 STARLINK-5311,1 55288U 23010V   24006.87584884 -.00000008  00000-0  71242-5 0  9998,2 55288  69.9985 223.4023 0002289 267.6681  92.4216 14.98331262 54517,6950.189,96.107,573.645,570.463,0.0
55288.0,STARLINK-5311,PAYLOAD,2024-01-07 14:38:42,14.98328778,0.0002236,69.9987,221.5523,265.9692,94.1211,4.9093e-05,4.93e-06,0.0,0 STARLINK-5311,1 55288U 23010V   24007.61020884  .00000493  00000-0  49093-4 0  9991,2 55288  69.9987 221.5523 0002236 265.9692  94.1211 14.98328778 54622,6950.197,96.107,573.616,570.508,0.0
55288.0,STARLINK-5311,PAYLOAD,2024-01-07 22:39:22,14.98328829,0.0002244,69.9987,220.7107,266.0987,93.9915,4.4028e-05,4.32e-06,0.0,0 STARLINK-5311,1 55288U 23010V   24007.94400905  .00000432  00000-0  44028-4 0  9999,2 55288  69.9987 220.7107 0002244 266.0987  93.9915 14.98328829 54679,6950.197,96.107,573.621,570.502,0.0
55288.0,STARLINK-5311,PAYLOAD,2024-01-08 00:15:30,14.98329081,0.0002243,69.9988,220.5424,266.1343,93.9559,4.5511e-05,4.5e-06,0.0,0 STARLINK-5311,1 55288U 23010V   24008.01076887  .00000450  00000-0  45511-4 0  9994,2 55288  69.9988 220.5424 0002243 266.1343  93.9559 14.98329081 54378,6950.196,96.107,573.62,570.502,0.0
55288.0,STARLINK-5311,PAYLOAD,2024-01-08 14:40:42,14.98332286,0.0002204,69.9988,219.0275,268.4643,91.6264,2.9833e-06,-5.7e-07,0.0,0 STARLINK-5311,1 55288U 23010V   24008.61160779 -.00000057  00000-0  29833-5 0  9998,2 55288  69.9988 219.0275 0002204 268.4643  91.6264 14.98332286 54773,6950.186,96.107,573.583,570.519,0.0
55288.0,STARLINK-5311,PAYLOAD,2024-01-08 22:41:23,14.98332695,0.0002198,69.999,218.1858,269.011,91.0797,1.0076e-05,2.7e-07,0.0,0 STARLINK-5311,1 55288U 23010V   24008.94540671  .00000027  00000-0  10076-4 0  9991,2 55288  69.9990 218.1858 0002198 269.0110  91.0797 14.98332695 54826,6950.185,96.107,573.577,570.522,0.0
55288.0,STARLINK-5311,PAYLOAD,2024-01-09 00:17:31,14.98333085,0.0002199,69.999,218.0175,269.1047,90.986,1.406e-05,7.5e-07,0.0,0 STARLINK-5311,1 55288U 23010V   24009.01216622  .00000075  00000-0  14060-4 0  9996,2 55288  69.9990 218.0175 0002199 269.1047  90.9860 14.98333085 54528,6950.183,96.107,573.577,570.52,0.0
55288.0,STARLINK-5311,PAYLOAD,2024-01-09 14:42:43,14.98331924,0.0002186,69.9991,216.5028,268.6831,91.4077,8.1275e-06,4e-08,0.0,0 STARLINK-5311,1 55288U 23010V   24009.61300589  .00000004  00000-0  81275-5 0  9993,2 55288  69.9991 216.5028 0002186 268.6831  91.4077 14.98331924 54920,6950.187,96.107,573.571,570.533,0.0
55288.0,STARLINK-5311,PAYLOAD,2024-01-09 19:31:07,14.98331907,0.0002187,69.9991,215.9978,268.2724,91.8185,7.4221e-06,-4e-08,0.0,0 STARLINK-5311,1 55288U 23010V   24009.81328554 -.00000004  00000-0  74221-5 0  9991,2 55288  69.9991 215.9978 0002187 268.2724  91.8185 14.98331907 54953,6950.187,96.107,573.572,570.532,0.0
55288.0,STARLINK-5311,PAYLOAD,2024-01-09 22:43:23,14.98331965,0.0002187,69.9991,215.6612,268.6946,91.3962,7.6333e-06,-2e-08,0.0,0 STARLINK-5311,1 55288U 23010V   24009.94680529 -.00000002  00000-0  76333-5 0  9992,2 55288  69.9991 215.6612 0002187 268.6946  91.3962 14.98331965 54979,6950.187,96.107,573.572,570.532,0.0
55288.0,STARLINK-5311,PAYLOAD,2024-01-10 19:33:08,14.98330584,0.0002151,69.9993,213.4728,267.0149,93.0764,-1.5086e-05,-2.73e-06,0.0,0 STARLINK-5311,1 55288U 23010V   24010.81468572 -.00000273  00000-0 -15086-4 0  9990,2 55288  69.9993 213.4728 0002151 267.0149  93.0764 14.98330584 54799,6950.191,96.107,573.551,570.561,0.0
55288.0,STARLINK-5311,PAYLOAD,2024-01-11 14:46:45,14.98330607,0.0002203,69.9992,211.453,266.4859,93.6048,-1.0726e-05,-2.21e-06,0.0,0 STARLINK-5311,1 55288U 23010V   24011.61580490 -.00000221  00000-0 -10726-4 0  9992,2 55288  69.9992 211.4530 0002203 266.4859  93.6048 14.98330607 55222,6950.191,96.107,573.587,570.525,0.0
